MEAN_MOTION;ECCENTRICITY;INCLINATION;RA_OF_ASC_NODE;ARG_OF_PERICENTER;MEAN_ANOMALY;BSTAR;MEAN_MOTION_DOT;MEAN_MOTION_DDOT;TYPE
14.34216202;0.0002534;86.3921;84.2781;72.6337;287.5135;7.6392E-6;4.1E-7;0;Iridium
14.34216196;0.0002511;86.3922;84.0445;72.798;287.349;6.257E-6;3.7E-7;0;Iridium
14.34216196;0.0002511;86.3922;84.0445;72.798;287.349;6.257E-6;3.7E-7;0;Iridium
14.34216205;0.0002498;86.3921;83.8694;72.6206;287.5263;6.1641E-6;3.7E-7;0;Iridium
14.34216195;0.0002471;86.3921;83.6067;72.0687;288.0779;3.952E-6;3.1E-7;0;Iridium
14.34216358;0.0002436;86.3922;83.227;71.2132;288.9327;1.3383E-5;5.7E-7;0;Iridium
14.3421642;0.0002435;86.3922;83.1978;71.3112;288.8348;1.7071E-5;6.8E-7;0;Iridium
14.34216461;0.000242;86.3922;83.0226;71.0973;289.0485;1.6847E-5;6.7E-7;0;Iridium
14.34216504;0.00024;86.3923;82.8182;70.8553;289.2902;1.6538E-5;6.6E-7;0;Iridium
14.34216603;0.000236;86.3924;82.3803;70.0967;290.0482;1.4312E-5;6.0E-7;0;Iridium
14.34216685;0.000232;86.3925;82.0007;69.7461;290.3984;1.3108E-5;5.6E-7;0;Iridium
14.34216684;0.0002298;86.3925;81.7672;69.6099;290.5344;9.8252E-6;4.7E-7;0;Iridium
14.34216721;0.0002272;86.3925;81.5335;69.4483;290.6956;9.0547E-6;4.5E-7;0;Iridium
14.34216721;0.0002272;86.3925;81.5335;69.4483;290.6956;9.0547E-6;4.5E-7;0;Iridium
14.34216757;0.0002258;86.3925;81.3583;69.3457;290.7981;9.175E-6;4.5E-7;0;Iridium
14.34216771;0.0002221;86.3925;80.9493;69.3012;290.8421;6.91E-6;3.9E-7;0;Iridium
14.34216775;0.0002192;86.3925;80.6573;68.9651;291.1779;5.0977E-6;3.4E-7;0;Iridium
14.34216809;0.0002185;86.3926;80.5698;68.8197;291.3232;7.3229E-6;4.0E-7;0;Iridium
14.34216888;0.0002149;86.3926;80.2778;68.7234;291.4191;1.0189E-5;4.8E-7;0;Iridium
14.3421694;0.0002133;86.3927;80.1026;68.6356;291.5067;1.2914E-5;5.6E-7;0;Iridium
14.34217001;0.0002107;86.3927;79.869;68.652;291.49;1.5734E-5;6.4E-7;0;Iridium
14.34217032;0.0002091;86.3928;79.6938;68.5938;291.5481;1.6138E-5;6.5E-7;0;Iridium
14.34217065;0.0002064;86.3928;79.4603;68.5164;291.6252;1.6351E-5;6.6E-7;0;Iridium
14.34217069;0.000206;86.3928;79.4019;68.4824;291.6592;1.6204E-5;6.5E-7;0;Iridium
14.34217078;0.0002044;86.3928;79.2559;68.5089;291.6324;1.5207E-5;6.2E-7;0;Iridium
14.34217111;0.0002015;86.3929;79.0223;68.5283;291.6128;1.5588E-5;6.3E-7;0;Iridium
14.3421714;0.0001999;86.3929;78.8472;68.5107;291.6302;1.5712E-5;6.4E-7;0;Iridium
14.34217182;0.0001972;86.393;78.6136;68.5706;291.57;1.6229E-5;6.5E-7;0;Iridium
14.34217218;0.0001957;86.393;78.4385;68.6119;291.5285;1.6368E-5;6.6E-7;0;Iridium
14.34217269;0.0001932;86.3931;78.2049;68.6362;291.504;1.6916E-5;6.7E-7;0;Iridium
14.34217328;0.0001913;86.3931;78.0006;68.7462;291.3938;1.7441E-5;6.9E-7;0;Iridium
14.34217456;0.0001888;86.3932;77.7671;68.9558;291.184;2.1485E-5;8.0E-7;0;Iridium
14.34217463;0.0001886;86.3932;77.7379;68.9465;291.1932;2.1374E-5;8.0E-7;0;Iridium
14.34217513;0.0001872;86.3932;77.5919;69.0509;291.0887;2.1657E-5;8.0E-7;0;Iridium
14.34217595;0.0001847;86.3933;77.3584;69.2122;290.9271;2.1924E-5;8.1E-7;0;Iridium
14.34217636;0.0001834;86.3933;77.1833;69.3436;290.7956;2.0963E-5;7.8E-7;0;Iridium
14.34217707;0.000181;86.3934;76.9498;69.571;290.5679;2.0158E-5;7.6E-7;0;Iridium
14.34217769;0.0001795;86.3935;76.7455;69.7598;290.379;1.9609E-5;7.5E-7;0;Iridium
14.342178;0.0001771;86.3936;76.4828;69.9917;290.1469;1.6708E-5;6.7E-7;0;Iridium
14.34217821;0.0001757;86.3937;76.3368;70.2493;289.8892;1.5346E-5;6.3E-7;0;Iridium
14.34217847;0.0001735;86.3938;76.0741;70.4976;289.6407;1.1581E-5;5.2E-7;0;Iridium
14.34217914;0.0001719;86.3939;75.9282;70.7033;289.4348;1.3541E-5;5.8E-7;0;Iridium
14.34218007;0.0001696;86.394;75.6947;71.153;288.985;1.5781E-5;6.4E-7;0;Iridium
14.34218023;0.0001693;86.394;75.6364;71.2404;288.8976;1.6096E-5;6.5E-7;0;Iridium
14.34218067;0.0001681;86.3941;75.4905;71.4823;288.6555;1.5906E-5;6.4E-7;0;Iridium
14.3421818;0.0001663;86.3942;75.2278;72.1335;288.0042;1.9821E-5;7.5E-7;0;Iridium
14.34218229;0.0001651;86.3942;75.0819;72.4326;287.705;1.9909E-5;7.6E-7;0;Iridium
14.34218239;0.0001646;86.3943;75.0235;72.6093;287.5283;1.9989E-5;7.6E-7;0;Iridium
14.34218322;0.000162;86.3944;74.6733;73.3549;286.7825;1.8996E-5;7.3E-7;0;Iridium
14.3421835;0.0001598;86.3945;74.4399;73.9743;286.1628;1.7431E-5;6.9E-7;0;Iridium
14.3421835;0.0001598;86.3945;74.4399;73.9743;286.1628;1.7431E-5;6.9E-7;0;Iridium
14.34218395;0.0001586;86.3945;74.2356;74.4563;285.6808;1.7127E-5;6.8E-7;0;Iridium
14.34218428;0.0001569;86.3946;74.0313;74.9983;285.1386;1.7332E-5;6.8E-7;0;Iridium
14.34218508;0.0001558;86.3947;73.8271;75.6589;284.478;1.9355E-5;7.4E-7;0;Iridium
14.34218571;0.0001545;86.3948;73.6228;76.1843;283.9524;2.1677E-5;8.0E-7;0;Iridium
14.34218628;0.0001535;86.3948;73.4186;76.7557;283.381;2.199E-5;8.1E-7;0;Iridium
14.342187;0.0001518;86.3949;73.1851;77.5352;282.6014;2.3606E-5;8.6E-7;0;Iridium
14.34218738;0.0001509;86.395;72.9809;78.1272;282.0093;2.2554E-5;8.3E-7;0;Iridium
14.34218846;0.0001493;86.3951;72.7766;78.9189;281.2175;2.5481E-5;9.1E-7;0;Iridium
14.34218928;0.0001487;86.3951;72.5724;79.7516;280.3847;2.6068E-5;9.3E-7;0;Iridium
14.34219017;0.0001476;86.3952;72.3682;80.5217;279.6146;2.7509E-5;9.7E-7;0;Iridium
14.34219088;0.000147;86.3953;72.164;81.211;278.9252;2.6731E-5;9.5E-7;0;Iridium
14.34216844;0.0001399;86.3949;71.9593;77.0838;283.0514;2.5692E-5;9.2E-7;0;Iridium
14.34215066;0.0001549;86.3956;71.5223;82.8295;277.3076;2.304E-5;8.4E-7;0;Iridium
14.34215066;0.0001549;86.3956;71.5223;82.8295;277.3076;2.304E-5;8.4E-7;0;Iridium
14.34215833;0.0001485;86.3956;71.318;83.8498;276.2867;2.5806E-5;9.2E-7;0;Iridium
14.34215913;0.0001479;86.3957;71.1138;85.1864;274.95;2.8277E-5;9.9E-7;0;Iridium
14.34215911;0.0001497;86.3958;70.9095;86.126;274.0107;2.0537E-5;7.7E-7;0;Iridium
14.34215934;0.0001493;86.396;70.4721;87.5906;272.5461;1.4059E-6;2.4E-7;0;Iridium
14.34216108;0.0001494;86.3961;70.1512;88.7436;271.393;1.5034E-5;6.2E-7;0;Iridium
14.34216184;0.0001493;86.3963;69.8012;90.0583;270.0784;1.3515E-5;5.8E-7;0;Iridium
14.34216183;0.0001498;86.3963;69.6554;90.5341;269.6026;1.1027E-5;5.1E-7;0;Iridium
14.34216212;0.0001505;86.3965;69.3637;91.4771;268.6597;1.0256E-5;4.8E-7;0;Iridium
14.34216231;0.0001507;86.3965;69.2179;92.116;268.0208;9.5041E-6;4.6E-7;0;Iridium
14.34216273;0.0001516;86.3966;68.9262;93.0326;267.1043;1.1189E-5;5.1E-7;0;Iridium
14.34216298;0.0001516;86.3967;68.8095;93.5017;266.6352;1.0992E-5;5.1E-7;0;Iridium
14.34216374;0.0001531;86.3968;68.4888;94.5685;265.5686;1.5002E-5;6.2E-7;0;Iridium
14.34216394;0.0001532;86.3968;68.4013;94.8541;265.283;1.4232E-5;6.0E-7;0;Iridium
14.3421644;0.0001537;86.3969;68.1971;95.5643;264.5728;1.6018E-5;6.5E-7;0;Iridium
14.3421644;0.0001537;86.3969;68.1971;95.5643;264.5728;1.6018E-5;6.5E-7;0;Iridium
14.34216535;0.000155;86.397;67.9639;96.2506;263.8866;1.9557E-5;7.5E-7;0;Iridium
14.34216623;0.0001555;86.3971;67.7889;96.7078;263.4295;2.2923E-5;8.4E-7;0;Iridium
14.34216716;0.0001569;86.3971;67.5556;97.2821;262.8553;2.4744E-5;8.9E-7;0;Iridium
14.34216785;0.0001576;86.3972;67.3515;97.9615;262.176;2.6057E-5;9.3E-7;0;Iridium
14.34216834;0.0001586;86.3972;67.1766;98.3487;261.7889;2.5609E-5;9.1E-7;0;Iridium
14.34216828;0.0001588;86.3972;67.1474;98.4452;261.6924;2.4658E-5;8.9E-7;0;Iridium
14.34216891;0.0001607;86.3974;66.7975;99.2959;260.8419;2.3114E-5;8.5E-7;0;Iridium
14.34216858;0.0001614;86.3974;66.7101;99.4649;260.673;1.9392E-5;7.4E-7;0;Iridium
14.34216936;0.0001627;86.3975;66.506;100.0595;260.0784;2.0415E-5;7.7E-7;0;Iridium
14.34216969;0.0001645;86.3976;66.3019;100.6345;259.5036;1.8268E-5;7.1E-7;0;Iridium
14.34217007;0.0001658;86.3976;66.0978;100.6664;259.4718;1.7002E-5;6.7E-7;0;Iridium
14.34217048;0.0001672;86.3977;65.8938;101.0801;259.0583;1.5488E-5;6.3E-7;0;Iridium
14.34217122;0.0001707;86.3978;65.4856;101.9933;258.1454;1.2896E-5;5.6E-7;0;Iridium
14.34217194;0.000172;86.3979;65.2815;102.4262;257.7127;1.3523E-5;5.8E-7;0;Iridium
14.34217262;0.000174;86.398;65.0483;102.7632;257.3758;1.3878E-5;5.9E-7;0;Iridium
14.34217355;0.000176;86.3981;64.8441;103.1875;256.9517;1.5561E-5;6.3E-7;0;Iridium
14.34217355;0.000176;86.3981;64.8441;103.1875;256.9517;1.5561E-5;6.3E-7;0;Iridium
14.34217401;0.0001779;86.3982;64.6401;103.4398;256.6996;1.4967E-5;6.2E-7;0;Iridium
14.34217449;0.0001792;86.3982;64.4652;103.6441;256.4954;1.5584E-5;6.3E-7;0;Iridium
14.34217491;0.0001818;86.3983;64.232;103.9644;256.1754;1.4668E-5;6.1E-7;0;Iridium
14.34217513;0.0001831;86.3984;64.0279;104.1861;255.9538;1.3866E-5;5.9E-7;0;Iridium
14.34217513;0.0001831;86.3984;64.0279;104.1861;255.9538;1.3866E-5;5.9E-7;0;Iridium
14.34217544;0.0001863;86.3985;63.7947;104.7245;255.4158;1.358E-5;5.8E-7;0;Iridium
14.34217565;0.0001875;86.3985;63.6198;104.6959;255.4444;1.3272E-5;5.7E-7;0;Iridium
14.34217565;0.0001875;86.3985;63.6198;104.6959;255.4444;1.3272E-5;5.7E-7;0;Iridium
14.34217575;0.0001903;86.3986;63.3866;105.0433;255.0973;1.2276E-5;5.4E-7;0;Iridium
14.34217638;0.0001916;86.3986;63.2117;104.8451;255.2957;1.4252E-5;6.0E-7;0;Iridium
14.34217685;0.0001941;86.3986;62.9785;105.0721;255.069;1.4738E-5;6.1E-7;0;Iridium
14.3421779;0.000197;86.3987;62.7745;105.4006;254.7408;1.8598E-5;7.2E-7;0;Iridium
14.3421779;0.000197;86.3987;62.7745;105.4006;254.7408;1.8598E-5;7.2E-7;0;Iridium
14.34217824;0.0001991;86.3988;62.5704;105.4238;254.7178;1.8149E-5;7.1E-7;0;Iridium
14.34217961;0.0002013;86.3988;62.3664;105.6493;254.4925;2.3405E-5;8.5E-7;0;Iridium
14.34217994;0.0002041;86.3988;62.1332;105.7921;254.3499;2.2357E-5;8.2E-7;0;Iridium
14.34218099;0.0002049;86.3988;61.9583;105.6143;254.5279;2.5841E-5;9.2E-7;0;Iridium
14.3421821;0.0002086;86.3989;61.5502;105.7083;254.4343;2.5568E-5;9.1E-7;0;Iridium
14.34218278;0.0002107;86.3989;61.3753;105.7548;254.388;2.6493E-5;9.4E-7;0;Iridium
14.3421829;0.000214;86.399;61.113;105.9449;254.1983;2.2966E-5;8.4E-7;0;Iridium
14.3421829;0.000214;86.399;61.113;105.9449;254.1983;2.2966E-5;8.4E-7;0;Iridium
14.34218311;0.0002167;86.3991;60.8799;105.9464;254.1971;2.0094E-5;7.6E-7;0;Iridium
14.34218432;0.0002189;86.3991;60.6759;105.8624;254.2813;2.2348E-5;8.2E-7;0;Iridium
14.34218432;0.0002189;86.3991;60.6759;105.8624;254.2813;2.2348E-5;8.2E-7;0;Iridium
